{
  "links" : {
    "next" : "https://api.nasa.gov/neo/rest/v1/feed?start_date=2012-07-16&end_date=2012-07-16&detailed=true&api_key=t0TVs3DtDT2H8Oy2Zy8m2eVrNsAVKAexjcZXUckd",
    "prev" : "https://api.nasa.gov/neo/rest/v1/feed?start_date=2012-07-14&end_date=2012-07-14&detailed=true&api_key=t0TVs3DtDT2H8Oy2Zy8m2eVrNsAVKAexjcZXUckd",
    "self" : "https://api.nasa.gov/neo/rest/v1/feed?start_date=2012-07-15&end_date=2012-07-15&detailed=true&api_key=t0TVs3DtDT2H8Oy2Zy8m2eVrNsAVKAexjcZXUckd"
  },
  "element_count" : 5,
  "near_earth_objects" : {
    "2012-07-15" : [ {
      "links" : {
        "self" : "https://api.nasa.gov/neo/rest/v1/neo/3313733?api_key=t0TVs3DtDT2H8Oy2Zy8m2eVrNsAVKAexjcZXUckd"
      },
      "neo_reference_id" : "3313733",
      "name" : "(2006 BC8)",
      "nasa_jpl_url" : "http://ssd.jpl.nasa.gov/sbdb.cgi?sstr=3313733",
      "absolute_magnitude_h" : 25.1,
      "estimated_diameter" : {
        "kilometers" : {
          "estimated_diameter_min" : 0.0253837029,
          "estimated_diameter_max" : 0.0567596853
        },
        "meters" : {
          "estimated_diameter_min" : 25.3837029364,
          "estimated_diameter_max" : 56.7596852866
        },
        "miles" : {
          "estimated_diameter_min" : 0.0157726969,
          "estimated_diameter_max" : 0.0352688224
        },
        "feet" : {
          "estimated_diameter_min" : 83.279867942,
          "estimated_diameter_max" : 186.2194458756
        }
      },
      "is_potentially_hazardous_asteroid" : false,
      "close_approach_data" : [ {
        "close_approach_date" : "2012-07-15",
        "epoch_date_close_approach" : 1342335600000,
        "relative_velocity" : {
          "kilometers_per_second" : "18.2404899663",
          "kilometers_per_hour" : "65665.763878513",
          "miles_per_hour" : "40802.1520055127"
        },
        "miss_distance" : {
          "astronomical" : "0.1771118733",
          "lunar" : "68.896522522",
          "kilometers" : "26495560",
          "miles" : "16463578"
        },
        "orbiting_body" : "Earth"
      } ],
      "orbital_data" : {
        "orbit_id" : "17",
        "orbit_determination_date" : "2017-04-06 09:09:19",
        "orbit_uncertainty" : "7",
        "minimum_orbit_intersection" : ".00177365",
        "jupiter_tisserand_invariant" : "5.110",
        "epoch_osculation" : "2458000.5",
        "eccentricity" : ".4316864973414467",
        "semi_major_axis" : "1.227028435690636",
        "inclination" : "6.892522370391887",
        "ascending_node_longitude" : "303.3197381163991",
        "orbital_period" : "496.4555474672371",
        "perihelion_distance" : ".6973368281489908",
        "perihelion_argument" : "91.21390425795599",
        "aphelion_distance" : "1.756720043232281",
        "perihelion_time" : "2458169.097945534073",
        "mean_anomaly" : "237.742809599138",
        "mean_motion" : ".7251404518221396",
        "equinox" : "J2000"
      }
    }, {
      "links" : {
        "self" : "https://api.nasa.gov/neo/rest/v1/neo/3726511?api_key=t0TVs3DtDT2H8Oy2Zy8m2eVrNsAVKAexjcZXUckd"
      },
      "neo_reference_id" : "3726511",
      "name" : "(2015 QM3)",
      "nasa_jpl_url" : "http://ssd.jpl.nasa.gov/sbdb.cgi?sstr=3726511",
      "absolute_magnitude_h" : 20.4,
      "estimated_diameter" : {
        "kilometers" : {
          "estimated_diameter_min" : 0.2210828104,
          "estimated_diameter_max" : 0.4943561926
        },
        "meters" : {
          "estimated_diameter_min" : 221.0828103591,
          "estimated_diameter_max" : 494.3561926196
        },
        "miles" : {
          "estimated_diameter_min" : 0.137374447,
          "estimated_diameter_max" : 0.3071786018
        },
        "feet" : {
          "estimated_diameter_min" : 725.3373275385,
          "estimated_diameter_max" : 1621.9035709942
        }
      },
      "is_potentially_hazardous_asteroid" : false,
      "close_approach_data" : [ {
        "close_approach_date" : "2012-07-15",
        "epoch_date_close_approach" : 1342335600000,
        "relative_velocity" : {
          "kilometers_per_second" : "12.5312533181",
          "kilometers_per_hour" : "45112.5119453162",
          "miles_per_hour" : "28031.160547355"
        },
        "miss_distance" : {
          "astronomical" : "0.2300560143",
          "lunar" : "89.4917907715",
          "kilometers" : "34415892",
          "miles" : "21385044"
        },
        "orbiting_body" : "Earth"
      } ],
      "orbital_data" : {
        "orbit_id" : "14",
        "orbit_determination_date" : "2017-04-06 08:32:22",
        "orbit_uncertainty" : "6",
        "minimum_orbit_intersection" : ".0603378",
        "jupiter_tisserand_invariant" : "7.968",
        "epoch_osculation" : "2458000.5",
        "eccentricity" : ".5311266167611985",
        "semi_major_axis" : ".7061856960164784",
        "inclination" : "16.12663522341424",
        "ascending_node_longitude" : "159.7375444854408",
        "orbital_period" : "216.7588317773578",
        "perihelion_distance" : ".331111676486094",
        "perihelion_argument" : "324.5664297715997",
        "aphelion_distance" : "1.081259715546863",
        "perihelion_time" : "2457990.832877869166",
        "mean_anomaly" : "16.05546560001224",
        "mean_motion" : "1.660831981092108",
        "equinox" : "J2000"
      }
    } ]
  }
}